[{"OBJECT_NAME":"CENTISPACE-1 S5","OBJECT_ID":"2022-126A","EPOCH":"2026-03-09T22:34:18.497568","MEAN_MOTION":14.62805573,"ECCENTRICITY":0.00117151,"INCLINATION":54.9978,"RA_OF_ASC_NODE":250.0528,"ARG_OF_PERICENTER":192.3608,"MEAN_ANOMALY":167.71,"EPHEMERIS_TYPE":0,"CLASSIFICATION_TYPE":"U","NORAD_CAT_ID":54020,"ELEMENT_SET_NO":999,"REV_AT_EPOCH":18251,"BSTAR":0.00028330925,"MEAN_MOTION_DOT":1.269e-5,"MEAN_MOTION_DDOT":0},{"OBJECT_NAME":"DELTA 1 DEB [YO]","OBJECT_ID":"1962-002B","EPOCH":"2026-03-09T01:48:55.596672","MEAN_MOTION":14.40688006,"ECCENTRICITY":0.0127302,"INCLINATION":48.1464,"RA_OF_ASC_NODE":79.3022,"ARG_OF_PERICENTER":6.5503,"MEAN_ANOMALY":353.7021,"EPHEMERIS_TYPE":0,"CLASSIFICATION_TYPE":"U","NORAD_CAT_ID":227,"ELEMENT_SET_NO":999,"REV_AT_EPOCH":32986,"BSTAR":0.0002156704,"MEAN_MOTION_DOT":5.88e-6,"MEAN_MOTION_DDOT":0}]
